GLOBALSTAR M024         
1 25883U 99043A   25040.97569594 -.00000100  00000+0 -12657-2 0  9991
2 25883  52.0044 307.6602 0000765 254.0073 189.7131 11.10165732100734
GLOBALSTAR M027         
1 25884U 99043B   25040.69247349 -.00000095  00000+0 -11910-2 0  9996
2 25884  52.0242  22.6632 0021398 145.2730 214.9464 11.04370616127155
GLOBALSTAR M054         
1 25885U 99043C   25041.51856416 -.00000099  00000+0 -70977-3 0  9993
2 25885  52.0128 169.3810 0004941 324.1533 115.5958 11.39215969104943
GLOBALSTAR M053         
1 25886U 99043D   25040.89897240 -.00000065  00000+0  11393-3 0  9993
2 25886  51.9977 110.8980 0003547 212.9642 318.9341 11.27662874105088
GLOBALSTAR M058         
1 25907U 99049A   25040.81012738  .00000012  00000+0  13006-2 0  9999
2 25907  51.9937  89.3045 0001821  44.8093 315.2889 11.93198157526338
GLOBALSTAR M050         
1 25908U 99049B   25040.92244653 -.00000008  00000+0  91126-3 0  9991
2 25908  51.9988 106.1883 0009757 137.9217  33.1752 12.07448194132817
GLOBALSTAR M033         
1 25909U 99049C   25040.57104528 -.00000175  00000+0 -80466-3 0  9990
2 25909  51.9940 347.7991 0013487   2.1406 357.9497 12.20288859520164
GLOBALSTAR M055         
1 25910U 99049D   25041.26523244 -.00000070  00000+0  20316-3 0  9990
2 25910  52.0050   2.7725 0006708 227.8663 132.1619 12.29420510152893
